WNISAT-1                
1 39423U 13066H   26095.39791018  .00001776  00000+0  32931-3 0  9998
2 39423  97.7095 249.7653 0164750 101.1547 260.8225 14.57967997656127
TRITON-1                
1 39427U 13066M   26095.82683117  .00004104  00000+0  49479-3 0  9993
2 39427  97.8280   7.2910 0091929 109.8242 251.2909 14.81359951663375
GOMX-1                  
1 39430U 13066Q   26095.79518062  .00003260  00000+0  49600-3 0  9997
2 39430  97.6535 300.8091 0128044 310.4580  48.5518 14.69211885659283
CUBEBUG-2 (LO-74)       
1 39440U 13066AA  26095.77177874  .00005118  00000+0  47957-3 0  9995
2 39440  97.8849  44.5005 0056656 267.6127  91.8605 14.93276645666187
NEE-02 KRYSAOR          
1 39441U 13066AB  26095.77892041  .00004174  00000+0  46190-3 0  9995
2 39441  97.8852  35.5458 0065228 308.1173  51.4173 14.86359868665442
FUNCUBE-1 (AO-73)       
1 39444U 13066AE  26095.64466373  .00011215  00000+0  71111-3 0  9994
2 39444  97.8238  65.6582 0039165  90.6364 269.9352 15.08450938668725
UWE-3                   
1 39446U 13066AG  26095.81287425  .00005712  00000+0  49640-3 0  9991
2 39446  97.8637  51.4630 0049011 199.0390 160.9001 14.96469600666755
BRITE-CA1 (TORONTO)     
1 40020U 14033L   26095.81025250  .00002088  00000+0  32037-3 0  9997
2 40020  97.9620 226.1258 0079597 147.8791 212.7302 14.72558091631561
DUCHIFAT-1              
1 40021U 14033M   26095.85116980  .00075209  00000+0  11705-2 0  9996
2 40021  98.0568 145.5501 0003080 338.6958  21.4165 15.53645575644480
NANOSATC-BR1            
1 40024U 14033Q   26095.62439616  .00021384  00000+0  75530-3 0  9990
2 40024  98.0799 121.6913 0005256  87.0423 273.1417 15.29231359642882
QB50P1                  
1 40025U 14033R   26095.75749619  .00012528  00000+0  63403-3 0  9998
2 40025  98.1004 101.8827 0010591 110.8560 249.3806 15.17127982642040
QB50P2                  
1 40032U 14033Y   26095.43185199  .00010777  00000+0  59319-3 0  9993
2 40032  98.0756  87.8451 0009339  69.5059 290.7173 15.14205209641657
PERSEUS-M2              
1 40037U 14033AD  26095.86386582  .00003420  00000+0  31565-3 0  9994
2 40037  97.9905  44.9736 0012070 172.3032 187.8375 14.95286613639974
PERSEUS-M1              
1 40039U 14033AF  26095.77533958  .00003027  00000+0  27928-3 0  9998
2 40039  97.9586  38.7585 0011846 170.6220 189.5224 14.95388079639818
POLYITAN-1              
1 40042U 14033AJ  26095.61686396  .00022664  00000+0  76154-3 0  9993
2 40042  98.1014 115.1380 0008612  53.5080 306.6952 15.30820774642484
TIGRISAT                
1 40043U 14033AK  26095.68091840  .00002867  00000+0  33677-3 0  9991
2 40043  97.7730 247.4076 0048411 313.5493  46.1705 14.84866730634869
AEROCUBE 6A             
1 40045U 14033AM  26095.46626678  .00009066  00000+0  77576-3 0  9996
2 40045  97.7163 263.2574 0037970 258.0350 101.6614 14.97263719635738
