[{"OBJECT_NAME":"WNISAT-1","OBJECT_ID":"2013-066H","EPOCH":"2026-04-05T09:32:59.439552","MEAN_MOTION":14.57967997,"ECCENTRICITY":0.01647508,"INCLINATION":97.7095,"RA_OF_ASC_NODE":249.7653,"ARG_OF_PERICENTER":101.1547,"MEAN_ANOMALY":260.8225,"EPHEMERIS_TYPE":0,"CLASSIFICATION_TYPE":"U","NORAD_CAT_ID":39423,"ELEMENT_SET_NO":999,"REV_AT_EPOCH":65612,"BSTAR":0.00032930712,"MEAN_MOTION_DOT":1.776e-5,"MEAN_MOTION_DDOT":0},{"OBJECT_NAME":"TRITON-1","OBJECT_ID":"2013-066M","EPOCH":"2026-04-05T19:50:38.213088","MEAN_MOTION":14.81359951,"ECCENTRICITY":0.0091929,"INCLINATION":97.828,"RA_OF_ASC_NODE":7.291,"ARG_OF_PERICENTER":109.8242,"MEAN_ANOMALY":251.2909,"EPHEMERIS_TYPE":0,"CLASSIFICATION_TYPE":"U","NORAD_CAT_ID":39427,"ELEMENT_SET_NO":999,"REV_AT_EPOCH":66337,"BSTAR":0.00049479,"MEAN_MOTION_DOT":4.104e-5,"MEAN_MOTION_DDOT":0},{"OBJECT_NAME":"GOMX-1","OBJECT_ID":"2013-066Q","EPOCH":"2026-04-05T19:05:03.605568","MEAN_MOTION":14.69211885,"ECCENTRICITY":0.0128044,"INCLINATION":97.6535,"RA_OF_ASC_NODE":300.8091,"ARG_OF_PERICENTER":310.458,"MEAN_ANOMALY":48.5518,"EPHEMERIS_TYPE":0,"CLASSIFICATION_TYPE":"U","NORAD_CAT_ID":39430,"ELEMENT_SET_NO":999,"REV_AT_EPOCH":65928,"BSTAR":0.000496,"MEAN_MOTION_DOT":3.26e-5,"MEAN_MOTION_DDOT":0},{"OBJECT_NAME":"CUBEBUG-2 (LO-74)","OBJECT_ID":"2013-066AA","EPOCH":"2026-04-05T18:31:21.683136","MEAN_MOTION":14.93276645,"ECCENTRICITY":0.0056656,"INCLINATION":97.8849,"RA_OF_ASC_NODE":44.5005,"ARG_OF_PERICENTER":267.6127,"MEAN_ANOMALY":91.8605,"EPHEMERIS_TYPE":0,"CLASSIFICATION_TYPE":"U","NORAD_CAT_ID":39440,"ELEMENT_SET_NO":999,"REV_AT_EPOCH":66618,"BSTAR":0.00047957,"MEAN_MOTION_DOT":5.118e-5,"MEAN_MOTION_DDOT":0},{"OBJECT_NAME":"NEE-02 KRYSAOR","OBJECT_ID":"2013-066AB","EPOCH":"2026-04-05T18:41:38.723424","MEAN_MOTION":14.86359868,"ECCENTRICITY":0.0065228,"INCLINATION":97.8852,"RA_OF_ASC_NODE":35.5458,"ARG_OF_PERICENTER":308.1173,"MEAN_ANOMALY":51.4173,"EPHEMERIS_TYPE":0,"CLASSIFICATION_TYPE":"U","NORAD_CAT_ID":39441,"ELEMENT_SET_NO":999,"REV_AT_EPOCH":66544,"BSTAR":0.0004619,"MEAN_MOTION_DOT":4.174e-5,"MEAN_MOTION_DDOT":0},{"OBJECT_NAME":"FUNCUBE-1 (AO-73)","OBJECT_ID":"2013-066AE","EPOCH":"2026-04-05T15:28:18.946272","MEAN_MOTION":15.08450938,"ECCENTRICITY":0.0039165,"INCLINATION":97.8238,"RA_OF_ASC_NODE":65.6582,"ARG_OF_PERICENTER":90.6364,"MEAN_ANOMALY":269.9352,"EPHEMERIS_TYPE":0,"CLASSIFICATION_TYPE":"U","NORAD_CAT_ID":39444,"ELEMENT_SET_NO":999,"REV_AT_EPOCH":66872,"BSTAR":0.00071111,"MEAN_MOTION_DOT":0.00011215,"MEAN_MOTION_DDOT":0},{"OBJECT_NAME":"UWE-3","OBJECT_ID":"2013-066AG","EPOCH":"2026-04-05T19:30:32.335200","MEAN_MOTION":14.964696,"ECCENTRICITY":0.0049011,"INCLINATION":97.8637,"RA_OF_ASC_NODE":51.463,"ARG_OF_PERICENTER":199.039,"MEAN_ANOMALY":160.9001,"EPHEMERIS_TYPE":0,"CLASSIFICATION_TYPE":"U","NORAD_CAT_ID":39446,"ELEMENT_SET_NO":999,"REV_AT_EPOCH":66675,"BSTAR":0.0004964,"MEAN_MOTION_DOT":5.712e-5,"MEAN_MOTION_DDOT":0},{"OBJECT_NAME":"BRITE-CA1 (TORONTO)","OBJECT_ID":"2014-033L","EPOCH":"2026-04-05T19:26:45.816000","MEAN_MOTION":14.72558091,"ECCENTRICITY":0.0079597,"INCLINATION":97.962,"RA_OF_ASC_NODE":226.1258,"ARG_OF_PERICENTER":147.8791,"MEAN_ANOMALY":212.7302,"EPHEMERIS_TYPE":0,"CLASSIFICATION_TYPE":"U","NORAD_CAT_ID":40020,"ELEMENT_SET_NO":999,"REV_AT_EPOCH":63156,"BSTAR":0.00032037,"MEAN_MOTION_DOT":2.088e-5,"MEAN_MOTION_DDOT":0},{"OBJECT_NAME":"DUCHIFAT-1","OBJECT_ID":"2014-033M","EPOCH":"2026-04-05T20:25:41.070720","MEAN_MOTION":15.53645575,"ECCENTRICITY":0.000308,"INCLINATION":98.0568,"RA_OF_ASC_NODE":145.5501,"ARG_OF_PERICENTER":338.6958,"MEAN_ANOMALY":21.4165,"EPHEMERIS_TYPE":0,"CLASSIFICATION_TYPE":"U","NORAD_CAT_ID":40021,"ELEMENT_SET_NO":999,"REV_AT_EPOCH":64448,"BSTAR":0.0011705,"MEAN_MOTION_DOT":0.00075209,"MEAN_MOTION_DDOT":0},{"OBJECT_NAME":"NANOSATC-BR1","OBJECT_ID":"2014-033Q","EPOCH":"2026-04-05T14:59:07.828224","MEAN_MOTION":15.29231359,"ECCENTRICITY":0.0005256,"INCLINATION":98.0799,"RA_OF_ASC_NODE":121.6913,"ARG_OF_PERICENTER":87.0423,"MEAN_ANOMALY":273.1417,"EPHEMERIS_TYPE":0,"CLASSIFICATION_TYPE":"U","NORAD_CAT_ID":40024,"ELEMENT_SET_NO":999,"REV_AT_EPOCH":64288,"BSTAR":0.0007553,"MEAN_MOTION_DOT":0.00021384,"MEAN_MOTION_DDOT":0},{"OBJECT_NAME":"QB50P1","OBJECT_ID":"2014-033R","EPOCH":"2026-04-05T18:10:47.670816","MEAN_MOTION":15.17127982,"ECCENTRICITY":0.0010591,"INCLINATION":98.1004,"RA_OF_ASC_NODE":101.8827,"ARG_OF_PERICENTER":110.856,"MEAN_ANOMALY":249.3806,"EPHEMERIS_TYPE":0,"CLASSIFICATION_TYPE":"U","NORAD_CAT_ID":40025,"ELEMENT_SET_NO":999,"REV_AT_EPOCH":64204,"BSTAR":0.00063403,"MEAN_MOTION_DOT":0.00012528,"MEAN_MOTION_DDOT":0},{"OBJECT_NAME":"QB50P2","OBJECT_ID":"2014-033Y","EPOCH":"2026-04-05T10:21:52.011936","MEAN_MOTION":15.14205209,"ECCENTRICITY":0.0009339,"INCLINATION":98.0756,"RA_OF_ASC_NODE":87.8451,"ARG_OF_PERICENTER":69.5059,"MEAN_ANOMALY":290.7173,"EPHEMERIS_TYPE":0,"CLASSIFICATION_TYPE":"U","NORAD_CAT_ID":40032,"ELEMENT_SET_NO":999,"REV_AT_EPOCH":64165,"BSTAR":0.00059319,"MEAN_MOTION_DOT":0.00010777,"MEAN_MOTION_DDOT":0},{"OBJECT_NAME":"PERSEUS-M2","OBJECT_ID":"2014-033AD","EPOCH":"2026-04-05T20:43:58.006848","MEAN_MOTION":14.95286613,"ECCENTRICITY":0.001207,"INCLINATION":97.9905,"RA_OF_ASC_NODE":44.9736,"ARG_OF_PERICENTER":172.3032,"MEAN_ANOMALY":187.8375,"EPHEMERIS_TYPE":0,"CLASSIFICATION_TYPE":"U","NORAD_CAT_ID":40037,"ELEMENT_SET_NO":999,"REV_AT_EPOCH":63997,"BSTAR":0.00031565,"MEAN_MOTION_DOT":3.42e-5,"MEAN_MOTION_DDOT":0},{"OBJECT_NAME":"PERSEUS-M1","OBJECT_ID":"2014-033AF","EPOCH":"2026-04-05T18:36:29.339712","MEAN_MOTION":14.95388079,"ECCENTRICITY":0.0011846,"INCLINATION":97.9586,"RA_OF_ASC_NODE":38.7585,"ARG_OF_PERICENTER":170.622,"MEAN_ANOMALY":189.5224,"EPHEMERIS_TYPE":0,"CLASSIFICATION_TYPE":"U","NORAD_CAT_ID":40039,"ELEMENT_SET_NO":999,"REV_AT_EPOCH":63981,"BSTAR":0.00027928,"MEAN_MOTION_DOT":3.027e-5,"MEAN_MOTION_DDOT":0},{"OBJECT_NAME":"POLYITAN-1","OBJECT_ID":"2014-033AJ","EPOCH":"2026-04-05T14:48:17.046144","MEAN_MOTION":15.30820774,"ECCENTRICITY":0.0008612,"INCLINATION":98.1014,"RA_OF_ASC_NODE":115.138,"ARG_OF_PERICENTER":53.508,"MEAN_ANOMALY":306.6952,"EPHEMERIS_TYPE":0,"CLASSIFICATION_TYPE":"U","NORAD_CAT_ID":40042,"ELEMENT_SET_NO":999,"REV_AT_EPOCH":64248,"BSTAR":0.00076154,"MEAN_MOTION_DOT":0.00022664,"MEAN_MOTION_DDOT":0},{"OBJECT_NAME":"TIGRISAT","OBJECT_ID":"2014-033AK","EPOCH":"2026-04-05T16:20:31.349760","MEAN_MOTION":14.8486673,"ECCENTRICITY":0.0048411,"INCLINATION":97.773,"RA_OF_ASC_NODE":247.4076,"ARG_OF_PERICENTER":313.5493,"MEAN_ANOMALY":46.1705,"EPHEMERIS_TYPE":0,"CLASSIFICATION_TYPE":"U","NORAD_CAT_ID":40043,"ELEMENT_SET_NO":999,"REV_AT_EPOCH":63486,"BSTAR":0.00033677,"MEAN_MOTION_DOT":2.867e-5,"MEAN_MOTION_DDOT":0},{"OBJECT_NAME":"AEROCUBE 6A","OBJECT_ID":"2014-033AM","EPOCH":"2026-04-05T11:11:25.449792","MEAN_MOTION":14.97263719,"ECCENTRICITY":0.00379708,"INCLINATION":97.7163,"RA_OF_ASC_NODE":263.2574,"ARG_OF_PERICENTER":258.035,"MEAN_ANOMALY":101.6614,"EPHEMERIS_TYPE":0,"CLASSIFICATION_TYPE":"U","NORAD_CAT_ID":40045,"ELEMENT_SET_NO":999,"REV_AT_EPOCH":63573,"BSTAR":0.0007757595,"MEAN_MOTION_DOT":9.066e-5,"MEAN_MOTION_DDOT":0}]
